SL-3 R/B                
1 19046U 88032B   26066.95498704  .00008524  00000+0  39711-3 0  9999
2 19046  97.5196  50.2118 0024318 237.9141 121.9732 15.19886801 51841
SL-16 R/B               
1 19120U 88039B   26067.00735074 -.00000151  00000+0 -48698-4 0  9995
2 19120  71.0132  72.1050 0022689 336.7891  23.2208 14.19615475958145
COSMOS 1953             
1 19210U 88050A   26066.72713705  .00012521  00000+0  44939-3 0  9998
2 19210  82.5102 160.2199 0012449 128.9174 231.3177 15.28485046 37482
SL-8 R/B                
1 19257U 88053B   26066.58037298  .00000344  00000+0  12006-3 0  9992
2 19257  74.0463 116.3548 0021402 295.9237 175.0046 14.38914426976292
COSMOS 1975             
1 19573U 88093A   26066.62930093  .00010153  00000+0  36939-3 0  9997
2 19573  82.5182 119.7534 0011932 170.4113 189.7356 15.28034297 19095
SL-14 R/B               
1 19574U 88093B   26066.44991435  .00000866  00000+0  96755-4 0  9998
2 19574  82.5301  44.1463 0021899  48.5281  67.5482 14.85653721   684
SL-16 R/B               
1 19650U 88102B   26066.99778654  .00000272  00000+0  16170-3 0  9993
2 19650  71.0000 155.0571 0013849   4.2178 355.9060 14.16150967926658
INTERCOSMOS 24          
1 20261U 89080A   26066.97567061  .00000992  00000+0  29539-3 0  9997
2 20261  82.6029 105.5206 1186722 296.8027  51.6524 12.59555265666589
SL-14 R/B               
1 20262U 89080C   26066.79538925  .00000876  00000+0  26013-3 0  9990
2 20262  82.5973 174.4018 1230504 189.0779 168.6083 12.50491215659911
DELTA 1 R/B             
1 20323U 89089B   26066.55155294  .00000468  00000+0  12406-3 0  9993
2 20323  97.0707 274.3303 0070340 128.6437 232.1085 14.50661124895428
ARIANE 40 R/B           
1 20443U 90005H   26066.72879690  .00000379  00000+0  13400-3 0  9994
2 20443  98.3087 127.4487 0009721 204.4345 155.6384 14.39869097892528
DELTA 2 R/B(1)          
1 20453U 90008B   26067.02711154  .00083705  00000+0  98454-3 0  9998
2 20453  35.6040 185.7642 0085724 243.3717 115.8217 15.55745350925876
