CCSDS_OMM_VERS = 2.0
CREATION_DATE  = 
ORIGINATOR     = 

OBJECT_NAME    = SL-3 R/B
OBJECT_ID      = 1988-032B
CENTER_NAME    = EARTH
REF_FRAME      = TEME
TIME_SYSTEM    = UTC
MEAN_ELEMENT_THEORY = SGP/SGP4

EPOCH          = 2026-03-07T22:55:10.880256
MEAN_MOTION    = 15.19886801
ECCENTRICITY   = .0024318
INCLINATION    = 97.5196
RA_OF_ASC_NODE = 50.2118
ARG_OF_PERICENTER = 237.9141
MEAN_ANOMALY   = 121.9732

EPHEMERIS_TYPE = 0
CLASSIFICATION_TYPE = U
NORAD_CAT_ID   = 19046
ELEMENT_SET_NO = 999
REV_AT_EPOCH   = 5184
BSTAR          = .39711E-3
MEAN_MOTION_DOT = .8524E-4
MEAN_MOTION_DDOT = 0

CCSDS_OMM_VERS = 2.0
CREATION_DATE  = 
ORIGINATOR     = 

OBJECT_NAME    = SL-16 R/B
OBJECT_ID      = 1988-039B
CENTER_NAME    = EARTH
REF_FRAME      = TEME
TIME_SYSTEM    = UTC
MEAN_ELEMENT_THEORY = SGP/SGP4

EPOCH          = 2026-03-08T00:10:35.103936
MEAN_MOTION    = 14.19615475
ECCENTRICITY   = .0022689
INCLINATION    = 71.0132
RA_OF_ASC_NODE = 72.1050
ARG_OF_PERICENTER = 336.7891
MEAN_ANOMALY   = 23.2208

EPHEMERIS_TYPE = 0
CLASSIFICATION_TYPE = U
NORAD_CAT_ID   = 19120
ELEMENT_SET_NO = 999
REV_AT_EPOCH   = 95814
BSTAR          = -.48698E-4
MEAN_MOTION_DOT = -.151E-5
MEAN_MOTION_DDOT = 0

CCSDS_OMM_VERS = 2.0
CREATION_DATE  = 
ORIGINATOR     = 

OBJECT_NAME    = COSMOS 1953
OBJECT_ID      = 1988-050A
CENTER_NAME    = EARTH
REF_FRAME      = TEME
TIME_SYSTEM    = UTC
MEAN_ELEMENT_THEORY = SGP/SGP4

EPOCH          = 2026-03-07T17:27:04.641984
MEAN_MOTION    = 15.28485046
ECCENTRICITY   = .00124493
INCLINATION    = 82.5102
RA_OF_ASC_NODE = 160.2199
ARG_OF_PERICENTER = 128.9174
MEAN_ANOMALY   = 231.3177

EPHEMERIS_TYPE = 0
CLASSIFICATION_TYPE = U
NORAD_CAT_ID   = 19210
ELEMENT_SET_NO = 999
REV_AT_EPOCH   = 3748
BSTAR          = .44938728E-3
MEAN_MOTION_DOT = .12521E-3
MEAN_MOTION_DDOT = 0

CCSDS_OMM_VERS = 2.0
CREATION_DATE  = 
ORIGINATOR     = 

OBJECT_NAME    = SL-8 R/B
OBJECT_ID      = 1988-053B
CENTER_NAME    = EARTH
REF_FRAME      = TEME
TIME_SYSTEM    = UTC
MEAN_ELEMENT_THEORY = SGP/SGP4

EPOCH          = 2026-03-07T13:55:44.225472
MEAN_MOTION    = 14.38914426
ECCENTRICITY   = .0021402
INCLINATION    = 74.0463
RA_OF_ASC_NODE = 116.3548
ARG_OF_PERICENTER = 295.9237
MEAN_ANOMALY   = 175.0046

EPHEMERIS_TYPE = 0
CLASSIFICATION_TYPE = U
NORAD_CAT_ID   = 19257
ELEMENT_SET_NO = 999
REV_AT_EPOCH   = 97629
BSTAR          = .12006E-3
MEAN_MOTION_DOT = .344E-5
MEAN_MOTION_DDOT = 0

CCSDS_OMM_VERS = 2.0
CREATION_DATE  = 
ORIGINATOR     = 

OBJECT_NAME    = COSMOS 1975
OBJECT_ID      = 1988-093A
CENTER_NAME    = EARTH
REF_FRAME      = TEME
TIME_SYSTEM    = UTC
MEAN_ELEMENT_THEORY = SGP/SGP4

EPOCH          = 2026-03-07T15:06:11.600352
MEAN_MOTION    = 15.28034297
ECCENTRICITY   = .0011932
INCLINATION    = 82.5182
RA_OF_ASC_NODE = 119.7534
ARG_OF_PERICENTER = 170.4113
MEAN_ANOMALY   = 189.7356

EPHEMERIS_TYPE = 0
CLASSIFICATION_TYPE = U
NORAD_CAT_ID   = 19573
ELEMENT_SET_NO = 999
REV_AT_EPOCH   = 1909
BSTAR          = .36939E-3
MEAN_MOTION_DOT = .10153E-3
MEAN_MOTION_DDOT = 0

CCSDS_OMM_VERS = 2.0
CREATION_DATE  = 
ORIGINATOR     = 

OBJECT_NAME    = SL-14 R/B
OBJECT_ID      = 1988-093B
CENTER_NAME    = EARTH
REF_FRAME      = TEME
TIME_SYSTEM    = UTC
MEAN_ELEMENT_THEORY = SGP/SGP4

EPOCH          = 2026-03-07T10:47:52.599840
MEAN_MOTION    = 14.85653721
ECCENTRICITY   = .0021899
INCLINATION    = 82.5301
RA_OF_ASC_NODE = 44.1463
ARG_OF_PERICENTER = 48.5281
MEAN_ANOMALY   = 67.5482

EPHEMERIS_TYPE = 0
CLASSIFICATION_TYPE = U
NORAD_CAT_ID   = 19574
ELEMENT_SET_NO = 999
REV_AT_EPOCH   = 68
BSTAR          = .96755415E-4
MEAN_MOTION_DOT = .866E-5
MEAN_MOTION_DDOT = 0

CCSDS_OMM_VERS = 2.0
CREATION_DATE  = 
ORIGINATOR     = 

OBJECT_NAME    = SL-16 R/B
OBJECT_ID      = 1988-102B
CENTER_NAME    = EARTH
REF_FRAME      = TEME
TIME_SYSTEM    = UTC
MEAN_ELEMENT_THEORY = SGP/SGP4

EPOCH          = 2026-03-07T23:56:48.757056
MEAN_MOTION    = 14.16150967
ECCENTRICITY   = .0013849
INCLINATION    = 71.0000
RA_OF_ASC_NODE = 155.0571
ARG_OF_PERICENTER = 4.2178
MEAN_ANOMALY   = 355.9060

EPHEMERIS_TYPE = 0
CLASSIFICATION_TYPE = U
NORAD_CAT_ID   = 19650
ELEMENT_SET_NO = 999
REV_AT_EPOCH   = 92665
BSTAR          = .1617E-3
MEAN_MOTION_DOT = .272E-5
MEAN_MOTION_DDOT = 0

CCSDS_OMM_VERS = 2.0
CREATION_DATE  = 
ORIGINATOR     = 

OBJECT_NAME    = INTERCOSMOS 24
OBJECT_ID      = 1989-080A
CENTER_NAME    = EARTH
REF_FRAME      = TEME
TIME_SYSTEM    = UTC
MEAN_ELEMENT_THEORY = SGP/SGP4

EPOCH          = 2026-03-07T23:24:57.940704
MEAN_MOTION    = 12.59555265
ECCENTRICITY   = .1186722
INCLINATION    = 82.6029
RA_OF_ASC_NODE = 105.5206
ARG_OF_PERICENTER = 296.8027
MEAN_ANOMALY   = 51.6524

EPHEMERIS_TYPE = 0
CLASSIFICATION_TYPE = U
NORAD_CAT_ID   = 20261
ELEMENT_SET_NO = 999
REV_AT_EPOCH   = 66658
BSTAR          = .29539E-3
MEAN_MOTION_DOT = .992E-5
MEAN_MOTION_DDOT = 0

CCSDS_OMM_VERS = 2.0
CREATION_DATE  = 
ORIGINATOR     = 

OBJECT_NAME    = SL-14 R/B
OBJECT_ID      = 1989-080C
CENTER_NAME    = EARTH
REF_FRAME      = TEME
TIME_SYSTEM    = UTC
MEAN_ELEMENT_THEORY = SGP/SGP4

EPOCH          = 2026-03-07T19:05:21.632064
MEAN_MOTION    = 12.50491215
ECCENTRICITY   = .12305036
INCLINATION    = 82.5973
RA_OF_ASC_NODE = 174.4018
ARG_OF_PERICENTER = 189.0779
MEAN_ANOMALY   = 168.6083

EPHEMERIS_TYPE = 0
CLASSIFICATION_TYPE = U
NORAD_CAT_ID   = 20262
ELEMENT_SET_NO = 999
REV_AT_EPOCH   = 65991
BSTAR          = .26012828E-3
MEAN_MOTION_DOT = .876E-5
MEAN_MOTION_DDOT = 0

CCSDS_OMM_VERS = 2.0
CREATION_DATE  = 
ORIGINATOR     = 

OBJECT_NAME    = DELTA 1 R/B
OBJECT_ID      = 1989-089B
CENTER_NAME    = EARTH
REF_FRAME      = TEME
TIME_SYSTEM    = UTC
MEAN_ELEMENT_THEORY = SGP/SGP4

EPOCH          = 2026-03-07T13:14:14.174016
MEAN_MOTION    = 14.50661124
ECCENTRICITY   = .007034
INCLINATION    = 97.0707
RA_OF_ASC_NODE = 274.3303
ARG_OF_PERICENTER = 128.6437
MEAN_ANOMALY   = 232.1085

EPHEMERIS_TYPE = 0
CLASSIFICATION_TYPE = U
NORAD_CAT_ID   = 20323
ELEMENT_SET_NO = 999
REV_AT_EPOCH   = 89542
BSTAR          = .12406E-3
MEAN_MOTION_DOT = .468E-5
MEAN_MOTION_DDOT = 0

CCSDS_OMM_VERS = 2.0
CREATION_DATE  = 
ORIGINATOR     = 

OBJECT_NAME    = ARIANE 40 R/B
OBJECT_ID      = 1990-005H
CENTER_NAME    = EARTH
REF_FRAME      = TEME
TIME_SYSTEM    = UTC
MEAN_ELEMENT_THEORY = SGP/SGP4

EPOCH          = 2026-03-07T17:29:28.052160
MEAN_MOTION    = 14.39869097
ECCENTRICITY   = .00097207
INCLINATION    = 98.3087
RA_OF_ASC_NODE = 127.4487
ARG_OF_PERICENTER = 204.4345
MEAN_ANOMALY   = 155.6384

EPHEMERIS_TYPE = 0
CLASSIFICATION_TYPE = U
NORAD_CAT_ID   = 20443
ELEMENT_SET_NO = 999
REV_AT_EPOCH   = 89252
BSTAR          = .13400463E-3
MEAN_MOTION_DOT = .379E-5
MEAN_MOTION_DDOT = 0

CCSDS_OMM_VERS = 2.0
CREATION_DATE  = 
ORIGINATOR     = 

OBJECT_NAME    = DELTA 2 R/B(1)
OBJECT_ID      = 1990-008B
CENTER_NAME    = EARTH
REF_FRAME      = TEME
TIME_SYSTEM    = UTC
MEAN_ELEMENT_THEORY = SGP/SGP4

EPOCH          = 2026-03-08T00:39:02.437056
MEAN_MOTION    = 15.55745350
ECCENTRICITY   = .0085724
INCLINATION    = 35.6040
RA_OF_ASC_NODE = 185.7642
ARG_OF_PERICENTER = 243.3717
MEAN_ANOMALY   = 115.8217

EPHEMERIS_TYPE = 0
CLASSIFICATION_TYPE = U
NORAD_CAT_ID   = 20453
ELEMENT_SET_NO = 999
REV_AT_EPOCH   = 92587
BSTAR          = .98454E-3
MEAN_MOTION_DOT = .83705E-3
MEAN_MOTION_DDOT = 0

